IRIDIUM 116             
1 43072U 17083C   24005.89887485  .00000323  00000+0  10816-3 0  9999
2 43072  86.3977 335.3481 0002151  90.1616 269.9827 14.34217583316132
IRIDIUM 130             
1 43073U 17083D   24005.93693455  .00000325  00000+0  10914-3 0  9998
2 43073  86.3985 335.5207 0002217  82.6778 277.4669 14.34219027316085
IRIDIUM 151             
1 43074U 17083E   24005.91156205  .00000102  00000+0  29404-4 0  9992
2 43074  86.3979 335.3802 0002401  96.7809 263.3660 14.34217216316100
IRIDIUM 134             
1 43075U 17083F   24005.94961901  .00000306  00000+0  10222-3 0  9996
2 43075  86.3980 335.3601 0002213  82.4975 277.6473 14.34217455316078
IRIDIUM 137             
1 43076U 17083G   24005.89252823  .00000324  00000+0  10866-3 0  9991
2 43076  86.3984 335.4590 0001979  98.3481 261.7939 14.34217599316134
IRIDIUM 141             
1 43077U 17083H   24005.95596226  .00000337  00000+0  11335-3 0  9993
2 43077  86.3978 335.3136 0002350  88.1002 272.0463 14.34218350316147
IRIDIUM 153             
1 43078U 17083J   24005.90814147  .00000066  00000+0  16335-4 0  9999
2 43078  86.3977 303.7864 0002604  89.2734 270.8760 14.34217870317244
IRIDIUM 131             
1 43079U 17083K   24005.94327336  .00000299  00000+0  99738-4 0  9999
2 43079  86.3983 335.4456 0002255  87.8132 272.3322 14.34217863316072
